ORBCOMM FM35            
1 25985U 99065F   26062.62248638  .00001293  00000+0  47139-3 0  9994
2 25985  45.0400 307.8224 0003439 269.6007  90.4447 14.37857198372114
ORBCOMM FM34            
1 25986U 99065G   26062.80139135  .00001146  00000+0  42413-3 0  9993
2 25986  45.0395 307.4823 0002968 212.4678 147.5988 14.37771564372256
ORBCOMM FM38            
1 33060U 08031A   26062.66000409  .00002751  00000+0  36374-3 0  9995
2 33060  48.4387 157.4595 0003834  79.4477 280.6871 14.82700765953234
ORBCOMM FM41            
1 33061U 08031B   26062.70099039  .00002658  00000+0  35618-3 0  9994
2 33061  48.4424 165.9792 0003146  59.3823  93.5054 14.82236253952710
ORBCOMM FM29            
1 33062U 08031C   26062.72959248  .00002918  00000+0  38687-3 0  9992
2 33062  48.4374 173.2777 0004762  60.9261  92.4044 14.82409704952630
ORBCOMM FM39            
1 33063U 08031D   26062.79649968  .00002659  00000+0  36859-3 0  9996
2 33063  48.4384 200.2281 0005935  28.5958 331.5282 14.80792110952252
ORBCOMM FM37            
1 33064U 08031E   26062.75970084  .00002609  00000+0  36048-3 0  9994
2 33064  48.4380 188.5232 0004392  49.1760 103.6988 14.80986006952507
ORBCOMM FM40            
1 33065U 08031F   26062.71900576  .00003306  00000+0  42241-3 0  9997
2 33065  48.4400 168.0824 0005190  68.0382  85.0756 14.83620247952677
VESSELSAT 1             
1 37840U 11058C   26062.07155261  .00000389  00000+0  67500-4 0  9991
2 37840  19.9630 327.2998 0013722 154.1814 205.9277 14.11418703742927
ORBCOMM FM109           
1 40086U 14040A   26062.48612581  .00000747  00000+0  19479-3 0  9998
2 40086  47.0020 231.1854 0001152 108.1548 251.9464 14.58710652618918
ORBCOMM FM107           
1 40087U 14040B   26062.43261404  .00000978  00000+0  24334-3 0  9990
2 40087  47.0036 232.2924 0000693 354.1328   5.9550 14.58794506618984
ORBCOMM FM106           
1 40088U 14040C   26062.28526300  .00001465  00000+0  27097-3 0  9994
2 40088  47.0612  34.0708 0016341 194.6073 165.4348 14.70283276621593
ORBCOMM FM111           
1 40089U 14040D   26062.66240806  .00004363  00000+0  48656-3 0  9995
2 40089  46.9992 206.2966 0028351 354.5887   5.4700 14.88299286628854
ORBCOMM FM104           
1 40090U 14040E   26062.57111574  .00000720  00000+0  19526-3 0  9993
2 40090  47.0043 268.3991 0016482 309.6025  50.3404 14.57155998618440
ORBCOMM FM103           
1 40091U 14040F   26062.41997010  .00000883  00000+0  22364-3 0  9998
2 40091  47.0039 233.0687 0001251  11.3791 348.7123 14.58697162601946
ORBCOMM FM114           
1 41179U 15081A   26062.57255876  .00000786  00000+0  20306-3 0  9992
2 41179  47.0042 141.2880 0001266  74.5268 285.5758 14.58718203542338
ORBCOMM FM119           
1 41180U 15081B   26062.16063690  .00000899  00000+0  22735-3 0  9993
2 41180  47.0007  52.5931 0000874 216.6176 143.4650 14.58660169543525
