[{"OBJECT_NAME":"ORBCOMM FM35","OBJECT_ID":"1999-065F","EPOCH":"2026-03-03T14:56:22.823232","MEAN_MOTION":14.37857198,"ECCENTRICITY":0.0003439,"INCLINATION":45.04,"RA_OF_ASC_NODE":307.8224,"ARG_OF_PERICENTER":269.6007,"MEAN_ANOMALY":90.4447,"EPHEMERIS_TYPE":0,"CLASSIFICATION_TYPE":"U","NORAD_CAT_ID":25985,"ELEMENT_SET_NO":999,"REV_AT_EPOCH":37211,"BSTAR":0.00047139,"MEAN_MOTION_DOT":1.293e-5,"MEAN_MOTION_DDOT":0},{"OBJECT_NAME":"ORBCOMM FM34","OBJECT_ID":"1999-065G","EPOCH":"2026-03-03T19:14:00.212640","MEAN_MOTION":14.37771564,"ECCENTRICITY":0.0002968,"INCLINATION":45.0395,"RA_OF_ASC_NODE":307.4823,"ARG_OF_PERICENTER":212.4678,"MEAN_ANOMALY":147.5988,"EPHEMERIS_TYPE":0,"CLASSIFICATION_TYPE":"U","NORAD_CAT_ID":25986,"ELEMENT_SET_NO":999,"REV_AT_EPOCH":37225,"BSTAR":0.00042413,"MEAN_MOTION_DOT":1.146e-5,"MEAN_MOTION_DDOT":0},{"OBJECT_NAME":"ORBCOMM FM38","OBJECT_ID":"2008-031A","EPOCH":"2026-03-03T15:50:24.353376","MEAN_MOTION":14.82700765,"ECCENTRICITY":0.0003834,"INCLINATION":48.4387,"RA_OF_ASC_NODE":157.4595,"ARG_OF_PERICENTER":79.4477,"MEAN_ANOMALY":280.6871,"EPHEMERIS_TYPE":0,"CLASSIFICATION_TYPE":"U","NORAD_CAT_ID":33060,"ELEMENT_SET_NO":999,"REV_AT_EPOCH":95323,"BSTAR":0.00036374,"MEAN_MOTION_DOT":2.751e-5,"MEAN_MOTION_DDOT":0},{"OBJECT_NAME":"ORBCOMM FM41","OBJECT_ID":"2008-031B","EPOCH":"2026-03-03T16:49:25.569696","MEAN_MOTION":14.82236253,"ECCENTRICITY":0.0003146,"INCLINATION":48.4424,"RA_OF_ASC_NODE":165.9792,"ARG_OF_PERICENTER":59.3823,"MEAN_ANOMALY":93.5054,"EPHEMERIS_TYPE":0,"CLASSIFICATION_TYPE":"U","NORAD_CAT_ID":33061,"ELEMENT_SET_NO":999,"REV_AT_EPOCH":95271,"BSTAR":0.00035618,"MEAN_MOTION_DOT":2.658e-5,"MEAN_MOTION_DDOT":0},{"OBJECT_NAME":"ORBCOMM FM29","OBJECT_ID":"2008-031C","EPOCH":"2026-03-03T17:30:36.790272","MEAN_MOTION":14.82409704,"ECCENTRICITY":0.0004762,"INCLINATION":48.4374,"RA_OF_ASC_NODE":173.2777,"ARG_OF_PERICENTER":60.9261,"MEAN_ANOMALY":92.4044,"EPHEMERIS_TYPE":0,"CLASSIFICATION_TYPE":"U","NORAD_CAT_ID":33062,"ELEMENT_SET_NO":999,"REV_AT_EPOCH":95263,"BSTAR":0.00038687,"MEAN_MOTION_DOT":2.918e-5,"MEAN_MOTION_DDOT":0},{"OBJECT_NAME":"ORBCOMM FM39","OBJECT_ID":"2008-031D","EPOCH":"2026-03-03T19:06:57.572352","MEAN_MOTION":14.8079211,"ECCENTRICITY":0.0005935,"INCLINATION":48.4384,"RA_OF_ASC_NODE":200.2281,"ARG_OF_PERICENTER":28.5958,"MEAN_ANOMALY":331.5282,"EPHEMERIS_TYPE":0,"CLASSIFICATION_TYPE":"U","NORAD_CAT_ID":33063,"ELEMENT_SET_NO":999,"REV_AT_EPOCH":95225,"BSTAR":0.00036859,"MEAN_MOTION_DOT":2.659e-5,"MEAN_MOTION_DDOT":0},{"OBJECT_NAME":"ORBCOMM FM37","OBJECT_ID":"2008-031E","EPOCH":"2026-03-03T18:13:58.152576","MEAN_MOTION":14.80986006,"ECCENTRICITY":0.0004392,"INCLINATION":48.438,"RA_OF_ASC_NODE":188.5232,"ARG_OF_PERICENTER":49.176,"MEAN_ANOMALY":103.6988,"EPHEMERIS_TYPE":0,"CLASSIFICATION_TYPE":"U","NORAD_CAT_ID":33064,"ELEMENT_SET_NO":999,"REV_AT_EPOCH":95250,"BSTAR":0.00036048,"MEAN_MOTION_DOT":2.609e-5,"MEAN_MOTION_DDOT":0},{"OBJECT_NAME":"ORBCOMM FM40","OBJECT_ID":"2008-031F","EPOCH":"2026-03-03T17:15:22.097664","MEAN_MOTION":14.83620247,"ECCENTRICITY":0.000519,"INCLINATION":48.44,"RA_OF_ASC_NODE":168.0824,"ARG_OF_PERICENTER":68.0382,"MEAN_ANOMALY":85.0756,"EPHEMERIS_TYPE":0,"CLASSIFICATION_TYPE":"U","NORAD_CAT_ID":33065,"ELEMENT_SET_NO":999,"REV_AT_EPOCH":95267,"BSTAR":0.00042241,"MEAN_MOTION_DOT":3.306e-5,"MEAN_MOTION_DDOT":0},{"OBJECT_NAME":"VESSELSAT 1","OBJECT_ID":"2011-058C","EPOCH":"2026-03-03T01:43:02.145504","MEAN_MOTION":14.11418703,"ECCENTRICITY":0.00137226,"INCLINATION":19.963,"RA_OF_ASC_NODE":327.2998,"ARG_OF_PERICENTER":154.1814,"MEAN_ANOMALY":205.9277,"EPHEMERIS_TYPE":0,"CLASSIFICATION_TYPE":"U","NORAD_CAT_ID":37840,"ELEMENT_SET_NO":999,"REV_AT_EPOCH":74292,"BSTAR":6.7500059e-5,"MEAN_MOTION_DOT":3.89e-6,"MEAN_MOTION_DDOT":0},{"OBJECT_NAME":"ORBCOMM FM109","OBJECT_ID":"2014-040A","EPOCH":"2026-03-03T11:40:01.269984","MEAN_MOTION":14.58710652,"ECCENTRICITY":0.00011525,"INCLINATION":47.002,"RA_OF_ASC_NODE":231.1854,"ARG_OF_PERICENTER":108.1548,"MEAN_ANOMALY":251.9464,"EPHEMERIS_TYPE":0,"CLASSIFICATION_TYPE":"U","NORAD_CAT_ID":40086,"ELEMENT_SET_NO":999,"REV_AT_EPOCH":61891,"BSTAR":0.00019478796,"MEAN_MOTION_DOT":7.47e-6,"MEAN_MOTION_DDOT":0},{"OBJECT_NAME":"ORBCOMM FM107","OBJECT_ID":"2014-040B","EPOCH":"2026-03-03T10:22:57.853056","MEAN_MOTION":14.58794506,"ECCENTRICITY":6.93e-5,"INCLINATION":47.0036,"RA_OF_ASC_NODE":232.2924,"ARG_OF_PERICENTER":354.1328,"MEAN_ANOMALY":5.955,"EPHEMERIS_TYPE":0,"CLASSIFICATION_TYPE":"U","NORAD_CAT_ID":40087,"ELEMENT_SET_NO":999,"REV_AT_EPOCH":61898,"BSTAR":0.00024333949,"MEAN_MOTION_DOT":9.78e-6,"MEAN_MOTION_DDOT":0},{"OBJECT_NAME":"ORBCOMM FM106","OBJECT_ID":"2014-040C","EPOCH":"2026-03-03T06:50:46.723200","MEAN_MOTION":14.70283276,"ECCENTRICITY":0.00163417,"INCLINATION":47.0612,"RA_OF_ASC_NODE":34.0708,"ARG_OF_PERICENTER":194.6073,"MEAN_ANOMALY":165.4348,"EPHEMERIS_TYPE":0,"CLASSIFICATION_TYPE":"U","NORAD_CAT_ID":40088,"ELEMENT_SET_NO":999,"REV_AT_EPOCH":62159,"BSTAR":0.00027096974,"MEAN_MOTION_DOT":1.465e-5,"MEAN_MOTION_DDOT":0},{"OBJECT_NAME":"ORBCOMM FM111","OBJECT_ID":"2014-040D","EPOCH":"2026-03-03T15:53:52.056384","MEAN_MOTION":14.88299286,"ECCENTRICITY":0.0028351,"INCLINATION":46.9992,"RA_OF_ASC_NODE":206.2966,"ARG_OF_PERICENTER":354.5887,"MEAN_ANOMALY":5.47,"EPHEMERIS_TYPE":0,"CLASSIFICATION_TYPE":"U","NORAD_CAT_ID":40089,"ELEMENT_SET_NO":999,"REV_AT_EPOCH":62885,"BSTAR":0.00048656,"MEAN_MOTION_DOT":4.363e-5,"MEAN_MOTION_DDOT":0},{"OBJECT_NAME":"ORBCOMM FM104","OBJECT_ID":"2014-040E","EPOCH":"2026-03-03T13:42:24.399936","MEAN_MOTION":14.57155998,"ECCENTRICITY":0.0016482,"INCLINATION":47.0043,"RA_OF_ASC_NODE":268.3991,"ARG_OF_PERICENTER":309.6025,"MEAN_ANOMALY":50.3404,"EPHEMERIS_TYPE":0,"CLASSIFICATION_TYPE":"U","NORAD_CAT_ID":40090,"ELEMENT_SET_NO":999,"REV_AT_EPOCH":61844,"BSTAR":0.00019526,"MEAN_MOTION_DOT":7.2e-6,"MEAN_MOTION_DDOT":0},{"OBJECT_NAME":"ORBCOMM FM103","OBJECT_ID":"2014-040F","EPOCH":"2026-03-03T10:04:45.416640","MEAN_MOTION":14.58697162,"ECCENTRICITY":0.0001251,"INCLINATION":47.0039,"RA_OF_ASC_NODE":233.0687,"ARG_OF_PERICENTER":11.3791,"MEAN_ANOMALY":348.7123,"EPHEMERIS_TYPE":0,"CLASSIFICATION_TYPE":"U","NORAD_CAT_ID":40091,"ELEMENT_SET_NO":999,"REV_AT_EPOCH":60194,"BSTAR":0.00022364457,"MEAN_MOTION_DOT":8.83e-6,"MEAN_MOTION_DDOT":0},{"OBJECT_NAME":"ORBCOMM FM114","OBJECT_ID":"2015-081A","EPOCH":"2026-03-03T13:44:29.076864","MEAN_MOTION":14.58718203,"ECCENTRICITY":0.0001266,"INCLINATION":47.0042,"RA_OF_ASC_NODE":141.288,"ARG_OF_PERICENTER":74.5268,"MEAN_ANOMALY":285.5758,"EPHEMERIS_TYPE":0,"CLASSIFICATION_TYPE":"U","NORAD_CAT_ID":41179,"ELEMENT_SET_NO":999,"REV_AT_EPOCH":54233,"BSTAR":0.00020306,"MEAN_MOTION_DOT":7.86e-6,"MEAN_MOTION_DDOT":0},{"OBJECT_NAME":"ORBCOMM FM119","OBJECT_ID":"2015-081B","EPOCH":"2026-03-03T03:51:19.028160","MEAN_MOTION":14.58660169,"ECCENTRICITY":8.748e-5,"INCLINATION":47.0007,"RA_OF_ASC_NODE":52.5931,"ARG_OF_PERICENTER":216.6176,"MEAN_ANOMALY":143.465,"EPHEMERIS_TYPE":0,"CLASSIFICATION_TYPE":"U","NORAD_CAT_ID":41180,"ELEMENT_SET_NO":999,"REV_AT_EPOCH":54352,"BSTAR":0.00022735456,"MEAN_MOTION_DOT":8.99e-6,"MEAN_MOTION_DDOT":0}]
